COSMOS 2507 (RODNIK-S *)
1 40920U 15050A   26189.96571865 -.00000058  00000+0 -49130-3 0  9993
2 40920  82.4911  66.1093 0009227 308.3051  51.7199 12.42927035489566
COSMOS 2508 (RODNIK-S *)
1 40921U 15050B   26190.00144038 -.00000007  00000+0 -11818-3 0  9995
2 40921  82.4863  64.5838 0014226 340.6212  19.4325 12.42914817489550
COSMOS 2509 (RODNIK-S *)
1 40922U 15050C   26189.94181838 -.00000068  00000+0 -56028-3 0  9995
2 40922  82.4871  64.7255 0014915 357.8121   2.2891 12.42884079489586
LINGQIAO VIDEO A        
1 40959U 15057B   26189.96668866  .00000487  00000+0  75038-4 0  9991
2 40959  97.6634 183.6951 0016143 193.5531 166.5248 14.77422206578624
LINGQIAO VIDEO B        
1 40960U 15057C   26189.94180019  .00000208  00000+0  35885-4 0  9997
2 40960  97.6599 184.8292 0016314 193.7337 166.3433 14.77526309578660
JILIN-1                 
1 40961U 15057D   26189.94558048  .00000555  00000+0  83081-4 0  9995
2 40961  97.6514 188.2328 0016645 187.1926 172.9049 14.78195008578827
FOX-1A (AO-85)          
1 40967U 15058D   26189.34630242  .00001594  00000+0  15149-3 0  9996
2 40967  64.7733 213.2226 0131833  48.4039 312.8281 14.91062267116723
SINOD-D 1               
1 40968U 15058E   26189.47047871  .00003105  00000+0  25218-3 0  9999
2 40968  64.7734 192.2541 0120508  44.7381 316.3376 14.96046656119846
ELEKTRO-L 2             
1 41105U 15074A   26189.42539329 -.00000107  00000+0  00000+0 0  9998
2 41105   6.7437  70.2631 0000693 230.4230 124.3160  1.00273098 38717
DAMPE                   
1 41173U 15078A   26190.00091178  .00000906  00000+0  32971-4 0  9991
2 41173  97.4566 195.5757 0012262   7.5435 352.5988 15.30842855587888
ORBCOMM FM110           
1 41182U 15081D   26189.67672562  .00000369  00000+0  11418-3 0  9993
2 41182  47.0015 259.8334 0003268 194.3105 165.7689 14.58913187560764
ORBCOMM FM112           
1 41184U 15081F   26189.64675551  .00000515  00000+0  14507-3 0  9998
2 41184  46.9974 168.7675 0004022 301.5516  58.4977 14.58931606562082
ORBCOMM FM113           
1 41185U 15081G   26189.62410532  .00000253  00000+0  89812-4 0  9994
2 41185  46.9992 169.2617 0002510 297.8833  62.1799 14.58877609562068
ORBCOMM FM108           
1 41187U 15081J   26189.38076986  .00000455  00000+0  13232-3 0  9996
2 41187  47.0052  81.9922 0002956 297.6319  62.4266 14.58903233563177
ORBCOMM FM117           
1 41188U 15081K   26189.07250359  .00000414  00000+0  12376-3 0  9994
2 41188  47.0014  82.0783 0003434 302.2374  57.8178 14.58889920563175
ORBCOMM FM116           
1 41189U 15081L   26189.73754067  .00000129  00000+0  63411-4 0  9993
2 41189  47.0009 168.7225 0001330 212.2170 147.8635 14.58901693562089
ZIYUAN 3-02 (ZY 3-02)   
1 41556U 16033A   26189.96141946  .00003467  00000+0  15732-3 0  9990
2 41556  97.3828 265.3169 0013410 207.1140 152.9397 15.21393782561296
CARTOSAT-2C             
1 41599U 16040A   26189.99342851  .00001974  00000+0  96850-4 0  9998
2 41599  97.4470 249.6702 0009989  63.5224 296.7034 15.19230736557025
LAPAN-A3                
1 41603U 16040E   26189.99016439  .00002278  00000+0  73180-4 0  9993
2 41603  97.1498 185.4219 0008420 303.2676  56.7760 15.33251558558158
GAOFEN-3                
1 41727U 16049A   26190.00741253 -.00000194  00000+0 -45708-4 0  9994
2 41727  98.4020 197.4639 0001739  91.2174 268.9215 14.42217646521793
CAS-2T & KS-1Q          
1 41847U 16066G   26189.77980185  .00000981  00000+0  14496-3 0  9998
2 41847  98.3814 265.2689 0342554  64.1810 299.4295 14.44760997507913
YUNHAI-1 01             
1 41857U 16068A   26189.95823111  .00000007  00000+0  18872-4 0  9998
2 41857  98.5852 200.7614 0003593   6.5758 353.5473 14.32718143504941
RESOURCESAT-2A          
1 41877U 16074A   26189.95971762  .00000101  00000+0  66276-4 0  9999
2 41877  98.7517 263.2857 0002699  42.0093 318.1291 14.21607932497395
TANSAT                  
1 41898U 16081A   26189.97417816 -.00000007  00000+0  91488-5 0  9997
2 41898  98.5374 190.8762 0019192 240.4936 119.4349 14.59967852507808
